ONEWEB-0205             
1 48226U 21031S   24123.19307067  .00000119  00000+0  28678-3 0  9998
2 48226  87.8932  84.1004 0002217  81.8739 278.2642 13.14503378146339
ONEWEB-0206             
1 48227U 21031T   24123.39446389 -.00000003  00000+0 -43320-4 0  9998
2 48227  87.8930  84.0508 0002184  79.2678 280.8697 13.14504091146312
ONEWEB-0182             
1 48228U 21031U   24122.85688060 -.00000033  00000+0 -12371-3 0  9997
2 48228  87.8933  84.1833 0001930  78.4501 281.6846 13.14502576146447
ONEWEB-0186             
1 48229U 21031V   24123.40080800  .00000138  00000+0  33716-3 0  9998
2 48229  87.8930  84.0390 0002093  86.4332 273.7037 13.14504173146476
ONEWEB-0181             
1 48230U 21031W   24122.84578437 -.00000080  00000+0 -25001-3 0  9991
2 48230  87.8938  84.2192 0002102  87.7289 272.4082 13.14502934146248
ONEWEB-0188             
1 48231U 21031X   24122.65548856  .00000263  00000+0  67488-3 0  9999
2 48231  87.8936  84.2532 0002057  82.7197 277.4166 13.14503439146123
ONEWEB-0220             
1 48232U 21031Y   24122.84737400 -.00000089  00000+0 -27391-3 0  9993
2 48232  87.8928  84.1826 0002321  79.3931 280.7460 13.14503031146416
ONEWEB-0165             
1 48233U 21031Z   24122.87591439  .00000389  00000+0  10141-2 0  9992
2 48233  87.8930  84.1904 0002209  84.8966 275.2416 13.14503405146371
